[{"OBJECT_NAME":"STARLINK-5879","OBJECT_ID":"2023-090BE","EPOCH":"2026-03-09T13:57:51.878016","MEAN_MOTION":15.0253352,"ECCENTRICITY":0.0001355,"INCLINATION":43.0021,"RA_OF_ASC_NODE":249.4964,"ARG_OF_PERICENTER":275.3502,"MEAN_ANOMALY":84.7185,"EPHEMERIS_TYPE":0,"CLASSIFICATION_TYPE":"U","NORAD_CAT_ID":57153,"ELEMENT_SET_NO":999,"REV_AT_EPOCH":15019,"BSTAR":2.3686e-5,"MEAN_MOTION_DOT":1.16e-6,"MEAN_MOTION_DDOT":0},{"OBJECT_NAME":"NEONSAT-1A","OBJECT_ID":"2026-019A","EPOCH":"2026-03-09T21:53:31.879392","MEAN_MOTION":15.0780294,"ECCENTRICITY":0.00137261,"INCLINATION":97.411,"RA_OF_ASC_NODE":192.4819,"ARG_OF_PERICENTER":167.4713,"MEAN_ANOMALY":192.686,"EPHEMERIS_TYPE":0,"CLASSIFICATION_TYPE":"U","NORAD_CAT_ID":67614,"ELEMENT_SET_NO":999,"REV_AT_EPOCH":585,"BSTAR":0.00027109929,"MEAN_MOTION_DOT":4.096e-5,"MEAN_MOTION_DDOT":0}]
